NEE-02 KRYSAOR          
1 39441U 13066AB  26068.37805844  .00004234  00000+0  46919-3 0  9992
2 39441  97.8816   8.3817 0067760  38.0821 322.5155 14.86160783661377
STARLINK-33885          
1 63886U 25094Y   26068.87181255  .00004798  00000+0  40965-3 0  9994
2 63886  70.0018 233.8651 0003058 266.2522  93.8288 14.98331241 47238
